STARLINK-4621           
1 53676U 22105AE  26189.38139810  .00000483  00000+0  37354-4 0  9996
2 53676  97.2845  67.3065 0001719  93.1385 267.0039 15.05644818211393
SHERPA-LTC2             
1 53754U 22107BG  26189.26632255  .00002378  00000+0  13332-3 0  9997
2 53754  53.2365 131.0875 0392726 285.2664  70.5225 14.69880791205648
CENTISPACE-1 S3         
1 53757U 22108A   26189.54824137  .00000301  00000+0  98746-4 0  9991
2 53757  53.5342 326.9283 0010561  49.2278 310.9612 14.61278462204659
CENTISPACE-1 S4         
1 53758U 22108B   26189.59088843  .00000434  00000+0  12377-3 0  9995
2 53758  53.5317 324.1682 0009801  38.7586 321.4091 14.61966162204698
BLUEWALKER-3            
1 53807U 22111AL  26189.55355898  .00004842  00000+0  13548-3 0  9995
2 53807  53.2293 293.6432 0004678 238.6089 121.4459 15.38556377213494
YUNHAI-1 03             
1 53877U 22115A   26189.55757851  .00000250  00000+0  10781-3 0  9996
2 53877  98.5539 187.4339 0004602 359.9417   0.1766 14.32732560198579
CENTISPACE-1 S5         
1 54020U 22126A   26189.46852360  .00000610  00000+0  15465-3 0  9994
2 54020  54.9985 127.7962 0014618 111.7633 248.4918 14.63048127200159
CENTISPACE-1 S6         
1 54021U 22126B   26189.47234308  .00000418  00000+0  11920-3 0  9990
2 54021  54.9987 129.7458 0016419 112.7055 247.5677 14.62309722200112
OTB-3-GAZELLE           
1 54023U 22127A   26189.42140575  .00000110  00000+0  45950-4 0  9990
2 54023  98.3955 180.8033 0014233 121.6441 238.6140 14.42682250197421
ASO-S                   
1 54029U 22129A   26189.61522969  .00000178  00000+0  55050-4 0  9996
2 54029  98.2752 194.3891 0015018  31.6940 328.5157 14.52072658198535
HJ-2E                   
1 54035U 22132A   26189.57975751  .00004734  00000+0  20569-3 0  9991
2 54035  97.3805 193.5746 0018177 296.2574  63.6794 15.22632859207675
COSMOS 2561             
1 54109U 22137A   26189.50399882  .00009180  00000+0  15253-3 0  9990
2 54109  96.9174 247.7126 0008289 311.2512  48.8027 15.52250889209654
GONETS-M 23             
1 54150U 22139A   26189.51396610  .00000039  00000+0  21170-3 0  9994
2 54150  82.5088 335.0397 0021856 172.7477 187.3923 12.42891718168297
GONETS-M 24             
1 54151U 22139B   26189.56753047  .00000040  00000+0  22049-3 0  9999
2 54151  82.5006 334.0515 0016911 182.2428 177.8578 12.42892328168307
GONETS-M 25             
1 54152U 22139C   26189.63444898  .00000004  00000+0 -41724-4 0  9992
2 54152  82.5071 334.7080 0020847 181.2537 178.8494 12.42890645168316
SKIF-D                  
1 54153U 22139D   26189.04230910  .00000003  00000+0  00000+0 0  9991
2 54153  89.9491  96.6621 0007406 190.2651 169.7852  5.00428686 65155
MATS                    
1 54227U 22147A   26189.25241264  .00001339  00000+0  97355-4 0  9996
2 54227  97.6830 190.7593 0014198 123.6871 236.5712 15.05482104200930
EOS-6 (OCEANSAT-3)      
1 54361U 22158A   26189.52976383  .00000182  00000+0  62092-4 0  9999
2 54361  98.3548 287.4415 0000243  79.6930 280.4290 14.46981873190929
DONGPO 09               
1 54685U 22167D   26189.57455105  .00007759  00000+0  21797-3 0  9990
2 54685  97.6917   1.5455 0003206  67.3037 292.8545 15.36829037198733
DONGPO 08               
1 54686U 22167E   26189.59282765  .00007529  00000+0  23049-3 0  9990
2 54686  97.6881 358.6406 0009362  93.6917 266.5396 15.34093052198600
2022-167F               
1 54687U 22167F   26189.61108513  .00565085  16332-3  67790-3 0  9998
2 54687  97.6030  20.4044 0005760 245.1431 114.9253 16.08333971200254
DONGPO 10               
1 54689U 22167H   26189.58814288  .00006982  00000+0  20871-3 0  9995
2 54689  97.6963   0.6378 0005507  48.5408 311.6307 15.34906841198644
JILIN-1 GAOFEN 03D48    
1 54695U 22167P   26189.57503199  .00007290  00000+0  21236-3 0  9996
2 54695  97.6897   0.0097 0006981  51.0438 309.1426 15.35694342198676
STAR VIBE               
1 55009U 23001A   26189.57247993  .00010261  00000+0  23287-3 0  9991
2 55009  97.3159 254.1297 0006134  51.7669 308.4131 15.43226546195523
BRO-8                   
1 55011U 23001C   26189.55010207  .00023834  00000+0  41953-3 0  9998
2 55011  97.3191 255.0600 0005561  62.3630 297.8186 15.50439609195513
CONNECTA T1.2           
1 55012U 23001D   26189.45381474  .00030743  00000+0  50266-3 0  9999
2 55012  97.3241 260.5442 0004599  33.6643 326.4901 15.52473724195848
BIRKELAND               
1 55015U 23001G   26189.52042131  .00005449  00000+0  13656-3 0  9991
2 55015  97.3336 257.5488 0007128  42.8737 317.3064 15.40458415195632
ION SCV-008             
1 55051U 23001AU  26189.51147962  .00003541  00000+0  12895-3 0  9993
2 55051  97.5709 286.1901 0013304 299.5514  60.4398 15.28827066194591
ION SCV-007             
1 55060U 23001BD  26189.46207190  .00000294  00000+0  48310-4 0  9991
2 55060  97.8996 252.0541 0010903 266.6621  93.3342 14.77572300189397
HUYGENS                 
1 55093U 23001CN  26189.52050565  .00005774  00000+0  14450-3 0  9991
2 55093  97.3239 256.7509 0009198  17.4781 342.6780 15.40458201195652
