OBJECT_NAME,OBJECT_ID,EPOCH,MEAN_MOTION,ECCENTRICITY,INCLINATION,RA_OF_ASC_NODE,ARG_OF_PERICENTER,MEAN_ANOMALY,EPHEMERIS_TYPE,CLASSIFICATION_TYPE,NORAD_CAT_ID,ELEMENT_SET_NO,REV_AT_EPOCH,BSTAR,MEAN_MOTION_DOT,MEAN_MOTION_DDOT
STARLINK-4621,2022-105AE,2026-07-08T09:09:12.795840,15.05644818,.00017191,97.2845,67.3065,93.1385,267.0039,0,U,53676,999,21139,.37354474E-4,.483E-5,0
SHERPA-LTC2,2022-107BG,2026-07-08T06:23:30.268320,14.69880791,.03927265,53.2365,131.0875,285.2664,70.5225,0,U,53754,999,20564,.13331737E-3,.2378E-4,0
CENTISPACE-1 S3,2022-108A,2026-07-08T13:09:28.054368,14.61278462,.00105612,53.5342,326.9283,49.2278,310.9612,0,U,53757,999,20465,.98746342E-4,.301E-5,0
CENTISPACE-1 S4,2022-108B,2026-07-08T14:10:52.760352,14.61966162,.00098015,53.5317,324.1682,38.7586,321.4091,0,U,53758,999,20469,.12376972E-3,.434E-5,0
BLUEWALKER-3,2022-111AL,2026-07-08T13:17:07.495872,15.38556377,.00046788,53.2293,293.6432,238.6089,121.4459,0,U,53807,999,21349,.13548442E-3,.4842E-4,0
YUNHAI-1 03,2022-115A,2026-07-08T13:22:54.783264,14.32732560,.00046029,98.5539,187.4339,359.9417,0.1766,0,U,53877,999,19857,.10780627E-3,.25E-5,0
CENTISPACE-1 S5,2022-126A,2026-07-08T11:14:40.439040,14.63048127,.00146184,54.9985,127.7962,111.7633,248.4918,0,U,54020,999,20015,.15465269E-3,.61E-5,0
CENTISPACE-1 S6,2022-126B,2026-07-08T11:20:10.442112,14.62309722,.00164198,54.9987,129.7458,112.7055,247.5677,0,U,54021,999,20011,.11919953E-3,.418E-5,0
OTB-3-GAZELLE,2022-127A,2026-07-08T10:06:49.456800,14.42682250,.00142331,98.3955,180.8033,121.6441,238.6140,0,U,54023,999,19742,.45950336E-4,.11E-5,0
ASO-S,2022-129A,2026-07-08T14:45:55.845216,14.52072658,.00150185,98.2752,194.3891,31.6940,328.5157,0,U,54029,999,19853,.55049524E-4,.178E-5,0
HJ-2E,2022-132A,2026-07-08T13:54:51.048864,15.22632859,.00181771,97.3805,193.5746,296.2574,63.6794,0,U,54035,999,20767,.20568964E-3,.4734E-4,0
COSMOS 2561,2022-137A,2026-07-08T12:05:45.498048,15.52250889,.0008289,96.9174,247.7126,311.2512,48.8027,0,U,54109,999,20965,.15253E-3,.918E-4,0
GONETS-M 23,2022-139A,2026-07-08T12:20:06.671040,12.42891718,.00218564,82.5088,335.0397,172.7477,187.3923,0,U,54150,999,16829,.21170046E-3,.39E-6,0
GONETS-M 24,2022-139B,2026-07-08T13:37:14.632608,12.42892328,.00169114,82.5006,334.0515,182.2428,177.8578,0,U,54151,999,16830,.22048985E-3,.4E-6,0
GONETS-M 25,2022-139C,2026-07-08T15:13:36.391872,12.42890645,.00208479,82.5071,334.7080,181.2537,178.8494,0,U,54152,999,16831,-.41723859E-4,.4E-7,0
SKIF-D,2022-139D,2026-07-08T01:00:55.506240,5.00428686,.00074066,89.9491,96.6621,190.2651,169.7852,0,U,54153,999,6515,0,.3E-7,0
MATS,2022-147A,2026-07-08T06:03:28.452096,15.05482104,.00141985,97.6830,190.7593,123.6871,236.5712,0,U,54227,999,20093,.9735515E-4,.1339E-4,0
EOS-6 (OCEANSAT-3),2022-158A,2026-07-08T12:42:51.594912,14.46981873,.00002433,98.3548,287.4415,79.6930,280.4290,0,U,54361,999,19092,.62092105E-4,.182E-5,0
DONGPO 09,2022-167D,2026-07-08T13:47:21.210720,15.36829037,.00032069,97.6917,1.5455,67.3037,292.8545,0,U,54685,999,19873,.21796582E-3,.7759E-4,0
DONGPO 08,2022-167E,2026-07-08T14:13:40.308960,15.34093052,.00093628,97.6881,358.6406,93.6917,266.5396,0,U,54686,999,19860,.23049054E-3,.7529E-4,0
2022-167F,2022-167F,2026-07-08T14:39:57.755232,16.08333971,.00057602,97.6030,20.4044,245.1431,114.9253,0,U,54687,999,20025,.677898E-3,.565085E-2,.1633241E-3
DONGPO 10,2022-167H,2026-07-08T14:06:55.544832,15.34906841,.00055079,97.6963,0.6378,48.5408,311.6307,0,U,54689,999,19864,.20871313E-3,.6982E-4,0
JILIN-1 GAOFEN 03D48,2022-167P,2026-07-08T13:48:02.763936,15.35694342,.00069813,97.6897,0.0097,51.0438,309.1426,0,U,54695,999,19867,.21236409E-3,.729E-4,0
STAR VIBE,2023-001A,2026-07-08T13:44:22.265952,15.43226546,.00061343,97.3159,254.1297,51.7669,308.4131,0,U,55009,999,19552,.23286651E-3,.10261E-3,0
BRO-8,2023-001C,2026-07-08T13:12:08.818848,15.50439609,.00055611,97.3191,255.0600,62.3630,297.8186,0,U,55011,999,19551,.41952951E-3,.23834E-3,0
CONNECTA T1.2,2023-001D,2026-07-08T10:53:29.593536,15.52473724,.00045992,97.3241,260.5442,33.6643,326.4901,0,U,55012,999,19584,.50265607E-3,.30743E-3,0
BIRKELAND,2023-001G,2026-07-08T12:29:24.401184,15.40458415,.00071284,97.3336,257.5488,42.8737,317.3064,0,U,55015,999,19563,.13655629E-3,.5449E-4,0
ION SCV-008,2023-001AU,2026-07-08T12:16:31.839168,15.28827066,.00133044,97.5709,286.1901,299.5514,60.4398,0,U,55051,999,19459,.12894982E-3,.3541E-4,0
ION SCV-007,2023-001BD,2026-07-08T11:05:23.012160,14.77572300,.00109038,97.8996,252.0541,266.6621,93.3342,0,U,55060,999,18939,.48310054E-4,.294E-5,0
HUYGENS,2023-001CN,2026-07-08T12:29:31.688160,15.40458201,.00091988,97.3239,256.7509,17.4781,342.6780,0,U,55093,999,19565,.14449648E-3,.5774E-4,0
